start=new Date('2023-03-15T00:00:00.000Z').valueOf();
sats=[{"MEAN_MOTION_DOT":"0.00015003","CENTER_NAME":"EARTH","RA_OF_ASC_NODE":"269.8428","SEMIMAJOR_AXIS":"6925.341","LAUNCH_DATE":"2021-02-16","TLE_LINE2":"2 47671  53.0524 269.8428 0001120 104.0975 256.0138 15.06402344115815","RCS_SIZE":"LARGE","OBJECT_NAME":"STARLINK-2064","COUNTRY_CODE":"US","GP_ID":"228073940","MEAN_ELEMENT_THEORY":"SGP4","ELEMENT_SET_NO":"999","ARG_OF_PERICENTER":"104.0975","SITE":"AFETR","MEAN_MOTION":"15.06402344","TIME_SYSTEM":"UTC","OBJECT_ID":"2021-012BD","BSTAR":"0.00102390000000","REV_AT_EPOCH":"11581","EPHEMERIS_TYPE":"0","REF_FRAME":"TEME","EPOCH":"2023-03-14T13:41:44.578176","APOAPSIS":"547.982","PERIAPSIS":"546.431","INCLINATION":"53.0524","FILE":"3860373","MEAN_ANOMALY":"256.0138","PERIOD":"95.592","TLE_LINE1":"1 47671U 21012BD  23073.57065484  .00015003  00000-0  10239-2 0  9991","CLASSIFICATION_TYPE":"U","DECAY_DATE":null,"OBJECT_TYPE":"PAYLOAD","ECCENTRICITY":"0.00011200","NORAD_CAT_ID":"47671","MEAN_MOTION_DDOT":"0.0000000000000"},{"REV_AT_EPOCH":"11597","EPHEMERIS_TYPE":"0","OBJECT_ID":"2021-012BE","TIME_SYSTEM":"UTC","BSTAR":"0.00108770000000","MEAN_MOTION":"15.06444598","SITE":"AFETR","OBJECT_NAME":"STARLINK-2065","GP_ID":"228107135","ELEMENT_SET_NO":"999","COUNTRY_CODE":"US","MEAN_ELEMENT_THEORY":"SGP4","ARG_OF_PERICENTER":"90.1989","RCS_SIZE":"LARGE","TLE_LINE2":"2 47672  53.0523 258.4489 0000872  90.1989 269.9100 15.06444598115975","SEMIMAJOR_AXIS":"6925.212","LAUNCH_DATE":"2021-02-16","RA_OF_ASC_NODE":"258.4489","CENTER_NAME":"EARTH","MEAN_MOTION_DOT":"0.00015976","MEAN_MOTION_DDOT":"0.0000000000000","OBJECT_TYPE":"PAYLOAD","ECCENTRICITY":"0.00008720","NORAD_CAT_ID":"47672","DECAY_DATE":null,"TLE_LINE1":"1 47672U 21012BE  23073.88115001  .00015976  00000-0  10877-2 0  9994","CLASSIFICATION_TYPE":"U","PERIOD":"95.589","INCLINATION":"53.0523","FILE":"3860643","MEAN_ANOMALY":"269.9100","PERIAPSIS":"546.473","APOAPSIS":"547.681","EPOCH":"2023-03-14T21:08:51.360864","REF_FRAME":"TEME"},{"RA_OF_ASC_NODE":"272.4267","MEAN_MOTION_DOT":"0.00014461","CENTER_NAME":"EARTH","SEMIMAJOR_AXIS":"6925.408","LAUNCH_DATE":"2021-02-16","OBJECT_NAME":"STARLINK-2066","GP_ID":"228075441","COUNTRY_CODE":"US","ARG_OF_PERICENTER":"4.4690","ELEMENT_SET_NO":"999","MEAN_ELEMENT_THEORY":"SGP4","RCS_SIZE":"LARGE","TLE_LINE2":"2 47673  53.0526 272.4267 0000550   4.4690 355.6304 15.06380562115710","SITE":"AFETR","TIME_SYSTEM":"UTC","OBJECT_ID":"2021-012BF","BSTAR":"0.00098819000000","MEAN_MOTION":"15.06380562","REV_AT_EPOCH":"11571","EPHEMERIS_TYPE":"0","EPOCH":"2023-03-13T23:53:43.900800","REF_FRAME":"TEME","APOAPSIS":"547.654","MEAN_ANOMALY":"355.6304","FILE":"3860373","INCLINATION":"53.0526","PERIAPSIS":"546.892","PERIOD":"95.593","DECAY_DATE":null,"TLE_LINE1":"1 47673U 21012BF  23072.99564700  .00014461  00000-0  98819-3 0  9991","CLASSIFICATION_TYPE":"U","MEAN_MOTION_DDOT":"0.0000000000000","ECCENTRICITY":"0.00005500","OBJECT_TYPE":"PAYLOAD","NORAD_CAT_ID":"47673"},{"MEAN_MOTION":"15.06435469","BSTAR":"0.00133740000000","OBJECT_ID":"2021-012BG","TIME_SYSTEM":"UTC","EPHEMERIS_TYPE":"0","REV_AT_EPOCH":"11585","MEAN_MOTION_DOT":"0.00019714","CENTER_NAME":"EARTH","RA_OF_ASC_NODE":"268.4800","SEMIMAJOR_AXIS":"6925.240","LAUNCH_DATE":"2021-02-16","RCS_SIZE":"LARGE","TLE_LINE2":"2 47674  53.0524 268.4800 0001028  67.1199 292.9899 15.06435469115852","COUNTRY_CODE":"US","GP_ID":"228106134","ARG_OF_PERICENTER":"67.1199","ELEMENT_SET_NO":"999","MEAN_ELEMENT_THEORY":"SGP4","OBJECT_NAME":"STARLINK-2067","SITE":"AFETR","CLASSIFICATION_TYPE":"U","TLE_LINE1":"1 47674U 21012BG  23073.87192717  .00019714  00000-0  13374-2 0  9993","DECAY_DATE":null,"NORAD_CAT_ID":"47674","OBJECT_TYPE":"PAYLOAD","ECCENTRICITY":"0.00010280","MEAN_MOTION_DDOT":"0.0000000000000","REF_FRAME":"TEME","EPOCH":"2023-03-14T20:55:34.507488","APOAPSIS":"547.817","PERIAPSIS":"546.393","FILE":"3860643","INCLINATION":"53.0524","MEAN_ANOMALY":"292.9899","PERIOD":"95.590"},{"MEAN_MOTION":"15.06380809","OBJECT_ID":"2021-012BH","TIME_SYSTEM":"UTC","BSTAR":"0.00038587000000","REV_AT_EPOCH":"11572","EPHEMERIS_TYPE":"0","MEAN_MOTION_DOT":"0.00005468","CENTER_NAME":"EARTH","RA_OF_ASC_NODE":"272.3910","SEMIMAJOR_AXIS":"6925.407","LAUNCH_DATE":"2021-02-16","TLE_LINE2":"2 47675  53.0527 272.3910 0001194  89.2915 270.8211 15.06380809115723","RCS_SIZE":"LARGE","OBJECT_NAME":"STARLINK-2078","GP_ID":"228074440","COUNTRY_CODE":"US","ARG_OF_PERICENTER":"89.2915","ELEMENT_SET_NO":"999","MEAN_ELEMENT_THEORY":"SGP4","SITE":"AFETR","TLE_LINE1":"1 47675U 21012BH  23073.00301614  .00005468  00000-0  38587-3 0  9992","CLASSIFICATION_TYPE":"U","DECAY_DATE":null,"OBJECT_TYPE":"PAYLOAD","ECCENTRICITY":"0.00011940","NORAD_CAT_ID":"47675","MEAN_MOTION_DDOT":"0.0000000000000","EPOCH":"2023-03-14T00:04:20.594496","REF_FRAME":"TEME","APOAPSIS":"548.099","PERIAPSIS":"546.445","FILE":"3860373","INCLINATION":"53.0527","MEAN_ANOMALY":"270.8211","PERIOD":"95.593"},{"CLASSIFICATION_TYPE":"U","TLE_LINE1":"1 47676U 21012BJ  23073.66183737 -.00020853  00000-0 -13871-2 0  9994","DECAY_DATE":null,"NORAD_CAT_ID":"47676","OBJECT_TYPE":"PAYLOAD","ECCENTRICITY":"0.00011410","MEAN_MOTION_DDOT":"0.0000000000000","APOAPSIS":"548.165","EPOCH":"2023-03-14T15:53:02.748768","REF_FRAME":"TEME","PERIOD":"95.595","PERIAPSIS":"546.584","INCLINATION":"53.0532","FILE":"3860643","MEAN_ANOMALY":"271.2349","MEAN_MOTION":"15.06347488","BSTAR":"-0.00138710000000","TIME_SYSTEM":"UTC","OBJECT_ID":"2021-012BJ","EPHEMERIS_TYPE":"0","REV_AT_EPOCH":"11734","LAUNCH_DATE":"2021-02-16","SEMIMAJOR_AXIS":"6925.510","MEAN_MOTION_DOT":"-0.00020853","CENTER_NAME":"EARTH","RA_OF_ASC_NODE":"159.4303","SITE":"AFETR","RCS_SIZE":"LARGE","TLE_LINE2":"2 47676  53.0532 159.4303 0001141  88.8771 271.2349 15.06347488117341","GP_ID":"228107635","ARG_OF_PERICENTER":"88.8771","COUNTRY_CODE":"US","ELEMENT_SET_NO":"999","MEAN_ELEMENT_THEORY":"SGP4","OBJECT_NAME":"STARLINK-2083"},{"MEAN_MOTION_DDOT":"0.0000000000000","NORAD_CAT_ID":"47677","ECCENTRICITY":"0.00009410","OBJECT_TYPE":"PAYLOAD","DECAY_DATE":null,"CLASSIFICATION_TYPE":"U","TLE_LINE1":"1 47677U 21012BK  23073.58630679  .00001822  00000-0  14125-3 0  9995","FILE":"3860455","MEAN_ANOMALY":"272.7576","INCLINATION":"53.0520","PERIAPSIS":"546.611","PERIOD":"95.593","EPOCH":"2023-03-14T14:04:16.906656","REF_FRAME":"TEME","APOAPSIS":"547.914","EPHEMERIS_TYPE":"0","REV_AT_EPOCH":"11501","BSTAR":"0.00014125000000","TIME_SYSTEM":"UTC","OBJECT_ID":"2021-012BK","MEAN_MOTION":"15.06384008","GP_ID":"228081419","ELEMENT_SET_NO":"999","COUNTRY_CODE":"US","MEAN_ELEMENT_THEORY":"SGP4","ARG_OF_PERICENTER":"87.3521","OBJECT_NAME":"STARLINK-2090","TLE_LINE2":"2 47677  53.0520 289.7622 0000941  87.3521 272.7576 15.06384008115013","RCS_SIZE":"LARGE","SITE":"AFETR","RA_OF_ASC_NODE":"289.7622","MEAN_MOTION_DOT":"0.00001822","CENTER_NAME":"EARTH","LAUNCH_DATE":"2021-02-16","SEMIMAJOR_AXIS":"6925.398"},{"REV_AT_EPOCH":"11558","EPHEMERIS_TYPE":"0","OBJECT_ID":"2021-012BM","TIME_SYSTEM":"UTC","BSTAR":"0.00016723000000","MEAN_MOTION":"15.06396549","SITE":"AFETR","OBJECT_NAME":"STARLINK-2095","GP_ID":"228106634","MEAN_ELEMENT_THEORY":"SGP4","COUNTRY_CODE":"US","ELEMENT_SET_NO":"999","ARG_OF_PERICENTER":"84.4859","TLE_LINE2":"2 47679  53.0509 288.4515 0000903  84.4859 275.6233 15.06396549115586","RCS_SIZE":"LARGE","SEMIMAJOR_AXIS":"6925.359","LAUNCH_DATE":"2021-02-16","RA_OF_ASC_NODE":"288.4515","MEAN_MOTION_DOT":"0.00002210","CENTER_NAME":"EARTH","MEAN_MOTION_DDOT":"0.0000000000000","OBJECT_TYPE":"PAYLOAD","ECCENTRICITY":"0.00009030","NORAD_CAT_ID":"47679","DECAY_DATE":null,"TLE_LINE1":"1 47679U 21012BM  23073.88113897  .00002210  00000-0  16723-3 0  9996","CLASSIFICATION_TYPE":"U","PERIOD":"95.592","FILE":"3860643","INCLINATION":"53.0509","MEAN_ANOMALY":"275.6233","PERIAPSIS":"546.599","APOAPSIS":"547.849","EPOCH":"2023-03-14T21:08:50.407008","REF_FRAME":"TEME"},{"REF_FRAME":"TEME","EPOCH":"2023-03-14T15:48:30.106656","APOAPSIS":"548.144","MEAN_ANOMALY":"258.9636","FILE":"3860643","INCLINATION":"53.0538","PERIAPSIS":"546.241","PERIOD":"95.592","DECAY_DATE":null,"TLE_LINE1":"1 47722U 21017A   23073.65868179  .00028748  00000-0  19406-2 0  9999","CLASSIFICATION_TYPE":"U","MEAN_MOTION_DDOT":"0.0000000000000","ECCENTRICITY":"0.00013740","OBJECT_TYPE":"PAYLOAD","NORAD_CAT_ID":"47722","RA_OF_ASC_NODE":"54.6863","MEAN_MOTION_DOT":"0.00028748","CENTER_NAME":"EARTH","LAUNCH_DATE":"2021-03-04","SEMIMAJOR_AXIS":"6925.327","OBJECT_NAME":"STARLINK-2068","GP_ID":"228106887","COUNTRY_CODE":"US","ARG_OF_PERICENTER":"101.1508","ELEMENT_SET_NO":"999","MEAN_ELEMENT_THEORY":"SGP4","RCS_SIZE":"LARGE","TLE_LINE2":"2 47722  53.0538  54.6863 0001374 101.1508 258.9636 15.06407001113548","SITE":"AFETR","OBJECT_ID":"2021-017A","TIME_SYSTEM":"UTC","BSTAR":"0.00194060000000","MEAN_MOTION":"15.06407001","REV_AT_EPOCH":"11354","EPHEMERIS_TYPE":"0"},{"DECAY_DATE":null,"CLASSIFICATION_TYPE":"U","TLE_LINE1":"1 47723U 21017B   23073.46744973  .00020061  00000-0  13624-2 0  9990","MEAN_MOTION_DDOT":"0.0000000000000","NORAD_CAT_ID":"47723","OBJECT_TYPE":"PAYLOAD","ECCENTRICITY":"0.00010980","APOAPSIS":"548.020","REF_FRAME":"TEME","EPOCH":"2023-03-14T11:13:07.656672","PERIOD":"95.593","FILE":"3860481","MEAN_ANOMALY":"207.1457","INCLINATION":"53.0541","PERIAPSIS":"546.499","BSTAR":"0.00136240000000","TIME_SYSTEM":"UTC","OBJECT_ID":"2021-017B","MEAN_MOTION":"15.06385098","EPHEMERIS_TYPE":"0","REV_AT_EPOCH":"11374","LAUNCH_DATE":"2021-03-04","SEMIMAJOR_AXIS":"6925.394","RA_OF_ASC_NODE":"350.3032","MEAN_MOTION_DOT":"0.00020061","CENTER_NAME":"EARTH","SITE":"AFETR","GP_ID":"228081832","COUNTRY_CODE":"US","ARG_OF_PERICENTER":"152.9589","ELEMENT_SET_NO":"999","MEAN_ELEMENT_THEORY":"SGP4","OBJECT_NAME":"STARLINK-2107","RCS_SIZE":"LARGE","TLE_LINE2":"2 47723  53.0541 350.3032 0001098 152.9589 207.1457 15.06385098113743"}];
